STARLINK-3336           
1 50818U 22001R   22024.75002315 -.00030851  00000+0 -21584-3 0  9991
2 50818  53.2154 110.6912 0001637  30.9160 230.7041 15.73237216  3388
STARLINK-3327           
1 50819U 22001S   22024.91667824 -.00107283  00000+0 -76838-3 0  9998
2 50819  53.2140 109.8681 0001265  40.0371  84.7076 15.73241711  3414
STARLINK-3339           
1 50820U 22001T   22024.83334491  .00001485  00000+0  14990-4 0  9999
2 50820  53.2145 110.2761 0001794  37.9930 337.4797 15.73222655  3402
STARLINK-3346           
1 50821U 22001U   22024.91667824 -.00009575  00000+0 -63840-4 0  9996
2 50821  53.2151 109.8586 0001139  31.2305  99.0157 15.73215811  3402
STARLINK-3343           
1 50822U 22001V   22024.75002315 -.00027512  00000+0 -19205-3 0  9993
2 50822  53.2143 110.6843 0001796  39.5239 225.2978 15.73221225  3383
STARLINK-3334           
1 50823U 22001W   22024.91667824 -.00009025  00000+0 -59888-4 0  9995
2 50823  53.2147 109.8726 0001539  30.2364  92.9888 15.73224148  3410
STARLINK-3340           
1 50824U 22001X   22024.75002315  .00010678  00000+0  80289-4 0  9999
2 50824  53.2136 110.6833 0001397  37.8336 227.5797 15.73233813  3382
STARLINK-3332           
1 50825U 22001Y   22024.75002315 -.00027638  00000+0 -19297-3 0  9996
2 50825  53.2146 110.6876 0001558  27.7723 236.4075 15.73220480  3382
STARLINK-3337           
1 50826U 22001Z   22024.66667824  .00070619  00000+0  50350-3 0  9999
2 50826  53.2145 111.0919 0001589  28.9931 126.6780 15.73193315  3371
STARLINK-3329           
1 50827U 22001AA  22024.83334491  .00001947  00000+0  18298-4 0  9994
2 50827  53.2143 110.2788 0001728  57.1456 316.9695 15.73190683  3404
STARLINK-3290           
1 50828U 22001AB  22024.66667824  .00080587  00000+0  57427-3 0  9998
2 50828  53.2139 111.0884 0001809  58.6265  98.1291 15.73151852  3372
STARLINK-3294           
1 50829U 22001AC  22024.83334491 -.00098878  00000+0 -70562-3 0  9998
2 50829  53.2142 110.2809 0001659  36.9137 336.1242 15.73289988  3402
STARLINK-3278           
1 50830U 22001AD  22024.50001157  .00010280  00000+0  77424-4 0  9998
2 50830  53.2138 111.9109 0001720  49.5959 243.5139 15.73245283  3340
STARLINK-3299           
1 50831U 22001AE  22024.66667824  .00079880  00000+0  56950-3 0  9996
2 50831  53.2145 111.0911 0001798  36.9562 119.1380 15.73144547  3376
STARLINK-3328           
1 50832U 22001AF  22024.66667824 -.00002759  00000+0 -15214-4 0  9999
2 50832  53.2143 111.0855 0001718  32.3468 125.8969 15.73242140  3374
STARLINK-3316           
1 50833U 22001AG  22024.58334491 -.00016011  00000+0 -10974-3 0  9995
2 50833  53.2152 111.5067 0001312  33.2247   9.5990 15.73229191  3362
STARLINK-3331           
1 50834U 22001AH  22024.66667824  .00050232  00000+0  36002-3 0  9995
2 50834  53.2141 111.0816 0001805  33.5143 126.6236 15.73210312  3373
STARLINK-3310           
1 50835U 22001AJ  22024.58334491  .00011891  00000+0  88862-4 0  9998
2 50835  53.2153 111.4931 0001750  39.7877   9.4047 15.73243023  3362
STARLINK-3330           
1 50836U 22001AK  22024.66667824 -.00023439  00000+0 -16278-3 0  9991
2 50836  53.2143 111.0835 0001695  39.4800 120.0397 15.73237112  3373
STARLINK-3318           
1 50837U 22001AL  22024.75002315 -.00070195  00000+0 -49860-3 0  9994
2 50837  53.2144 110.6801 0001313  47.5489 219.1554 15.73260610  3388
STARLINK-3322           
1 50838U 22001AM  22024.58334491 -.00435185  00000+0 -32331-2 0  9997
2 50838  53.2155 111.4846 0001623  51.6565   1.2934 15.73387000  3367
STARLINK-3320           
1 50839U 22001AN  22024.58334491 -.00022099  00000+0 -15312-3 0  9995
2 50839  53.2150 111.4886 0001662  36.3717  14.7023 15.73248000  3363
STARLINK-3295           
1 50840U 22001AP  22024.58334491 -.00025695  00000+0 -17879-3 0  9992
2 50840  53.2155 111.4878 0001693  53.3812 358.3534 15.73253463  3363
STARLINK-3300           
1 50841U 22001AQ  22024.58334491  .00047047  00000+0  33735-3 0  9995
2 50841  53.2152 111.4919 0001813  45.9374   3.8843 15.73227466  3360
STARLINK-3302           
1 50842U 22001AR  22024.58334491 -.00056518  00000+0 -39977-3 0  9995
2 50842  53.2148 111.4848 0001611  39.5011  12.8693 15.73269470  3364
STARLINK-3325           
1 50843U 22001AS  22024.58334491 -.00067683  00000+0 -48046-3 0  9998
2 50843  53.2143 111.4932 0001919  40.8697   7.6978 15.73258236  3366
STARLINK-3326           
1 50844U 22001AT  22024.50001157 -.00147862  00000+0 -10618-2 0  9992
2 50844  53.2155 111.8933 0001657  42.8275 259.1557 15.73327875  3349
STARLINK-3230           
1 50845U 22001AU  22024.58334491  .00034767  00000+0  25084-3 0  9992
2 50845  53.2144 111.4962 0001759  31.0626  15.5591 15.73224383  3363
STARLINK-3308           
1 50846U 22001AV  22024.25002315  .00000108  00000+0  51905-5 0  9999
2 50846  53.2175 113.1301 0001447  47.9638 277.9327 15.73204434  4016
STARLINK-3319           
1 50847U 22001AW  22024.58334491  .00041352  00000+0  29788-3 0  9997
2 50847  53.2152 111.4904 0002090  47.2944   2.9896 15.73177289  3361
STARLINK-3315           
1 50848U 22001AX  22024.25002315  .00000299  00000+0  65453-5 0  9995
2 50848  53.2175 113.1288 0001434  48.8468 277.6884 15.73204300  4049
STARLINK-3311           
1 50849U 22001AY  22024.58334491  .00143192  00000+0  10104-2 0  9995
2 50849  53.2160 111.4834 0001589  50.2624   3.2244 15.73129555  4023
STARLINK-3312           
1 50850U 22001AZ  22024.58334491 -.00354857  00000+0 -26264-2 0  9995
2 50850  53.2159 111.4767 0001548  40.9935  15.8686 15.73248844  3362
STARLINK-3314           
1 50851U 22001BA  22024.25002315  .00000607  00000+0  87409-5 0  9997
2 50851  53.2175 113.1276 0001302  55.3784 271.7956 15.73204123  4013
FALCON 9 DEB            
1 50852U 22001BB  22022.44430494  .08587003  12365-4  22273-3 0  9996
2 50852  53.1793 119.3791 0012932 237.8483 122.1313 16.44657299  2528
FALCON 9 DEB            
1 50853U 22001BC  22021.75668335  .12875465  12547-4  12745-3 0  9999
2 50853  53.2054 122.9369 0014134 250.8744 109.0779 16.49951377  2419
FALCON 9 DEB            
1 50855U 22001BE  22021.32207633  .08146901  12349-4  23886-3 0  9993
2 50855  53.2096 125.2127 0015208 244.5987 115.3490 16.43751165  2346
2022-002A               
1 50984U 22002A   22024.78982860  .00006318  00000+0  35302-3 0  9993
2 50984  97.5043  94.2994 0014694 187.3426 172.7593 15.13767105  1694
2022-002B               
1 50985U 22002B   22024.72412590  .00006158  00000+0  34467-3 0  9999
2 50985  97.5087  94.2419 0014949 190.4480 169.6443 15.13708236  1681
2022-002C               
1 50986U 22002C   22024.86528072  .00005693  00000+0  33045-3 0  9992
2 50986  97.5059  94.3532 0010400 193.3769 166.7187 15.12480619  1705
2022-002D               
1 50987U 22002D   22024.72427305  .00006697  00000+0  37465-3 0  9990
2 50987  97.5087  94.2413 0014819 190.7423 169.3494 15.13696746  1688
2022-002E               
1 50988U 22002E   22024.86542193  .00003010  00000+0  17683-3 0  9995
2 50988  97.5011  94.3445 0009801 191.1022 168.9994 15.12425666  1700
2022-002F               
1 50989U 22002F   22024.86578282  .00003033  00000+0  17841-3 0  9995
2 50989  97.5025  94.3451 0009894 189.9460 170.1577 15.12376503  1703
2022-002G               
1 50990U 22002G   22024.72414277  .00005828  00000+0  32645-3 0  9998
2 50990  97.5051  94.2342 0014705 186.6101 173.4938 15.13709255  1684
2022-002H               
1 50991U 22002H   22024.72529252  .00006121  00000+0  34428-3 0  9997
2 50991  97.5101  94.2427 0014450 192.4043 167.6835 15.13544900  1687
FLOCK 4X-8              
1 50992U 22002J   22024.86273911  .00001579  00000+0  93602-4 0  9993
2 50992  97.5073  94.3641 0011434 200.3159 159.7619 15.12778589  1707
VZLUSAT-3             
1 50993U 22002K   22024.86515300  .00000219  00000+0  16304-4 0  9999
2 50993  97.5063  94.3536 0010547 192.9682 167.1279 15.12417976  1706
FLOCK 4X-44             
1 50994U 22002L   22024.86293977  .00001673  00000+0  99006-4 0  9998
2 50994  97.5096  94.3668 0011764 198.9584 161.1210 15.12749171  1702
2022-002M               
1 50995U 22002M   22024.93185490  .00002277  00000+0  13484-3 0  9993
2 50995  97.5012  94.4080 0009864 189.0603 171.0452 15.12378996  1713
FLOCK 4X-2              
1 50996U 22002N   22024.92887846  .00001740  00000+0  10275-3 0  9996
2 50996  97.5086  94.4306 0011698 198.8846 161.1952 15.12779653  1711
FLOCK 4X-20             
1 50997U 22002P   22024.86266896  .00001400  00000+0  83398-4 0  9996
2 50997  97.5083  94.3663 0011656 200.5566 159.5198 15.12783485  1708
2022-002Q               
1 50998U 22002Q   22024.86230250  .00002935  00000+0  17043-3 0  9999
2 50998  97.5004  94.3472 0011552 187.9974 172.1075 15.12848760  1709
2022-002R               
1 50999U 22002R   22024.86229335  .00003001  00000+0  17420-3 0  9996
2 50999  97.5003  94.3470 0011548 187.8156 172.2897 15.12850712  1706
FLOCK 4X-30             
1 51000U 22002S   22024.86240809  .00001958  00000+0  11499-3 0  9998
2 51000  97.5029  94.3507 0011987 191.1019 168.9949 15.12823763  1708
2022-002T               
1 51001U 22002T   22024.72559862  .00006356  00000+0  35772-3 0  9993
2 51001  97.5104  94.2430 0014285 193.1668 166.9192 15.13507280  1682
2022-002U               
1 51002U 22002U   22024.86213585  .00002085  00000+0  12208-3 0  9992
2 51002  97.5025  94.3510 0011876 190.1830 169.9162 15.12867952  1703
FLOCK 4X-22             
1 51003U 22002V   22024.86210144  .00002277  00000+0  13299-3 0  9995
2 51003  97.5065  94.3646 0011619 201.9921 158.0813 15.12867873  1709
FLOCK 4X-5              
1 51004U 22002W   22024.86204482  .00001408  00000+0  83628-4 0  9993
2 51004  97.5043  94.3534 0012214 193.1612 166.9302 15.12871012  1704
FLOCK 4X-41             
1 51005U 22002X   22024.86197303  .00001567  00000+0  92627-4 0  9992
2 51005  97.5023  94.3515 0011871 189.5402 170.5605 15.12878313  1704
